STARLINK-37896          
1 69970U 26157AD  26196.91668981 -.02269847  14614-2 -51062-2 0  9998
2 69970  53.1589 291.9916 0000747  67.6843 285.6651 15.97190109  2279
STARLINK-37922          
1 69971U 26157AE  26196.91668981 -.02267222  14584-2 -50958-2 0  9993
2 69971  53.1588 291.9898 0000793  66.2564 287.9503 15.97205987  2276
CHUANG XIN 26 (CX-26)   
1 69972U 26158A   26194.51442212 -.00000212  00000+0 -21871-4 0  9997
2 69972  49.9860 287.5119 0004887 294.2352  65.8050 14.25122238   462
CZ-10B DEB              
1 69973U 26158B   26194.58513205  .00000099  00000+0  11013-3 0  9993
2 69973  49.9846 287.2193 0005701 305.8104  54.2279 14.24885997   479
CZ-10B R/B              
1 69974U 26158C   26194.56253036  .00000143  00000+0  55130-4 0  9994
2 69974  49.9631 286.3519 0197944 194.8878 164.6170 14.64293949   480
STARLINK-38024          
1 69975U 26159A   26196.91668981 -.01830356  96053-3 -46025-2 0  9994
2 69975  97.2851  35.5778 0001273  86.3288 287.5294 15.95769840  1971
STARLINK-37993          
1 69976U 26159B   26196.91668981 -.01806149  93820-3 -45088-2 0  9995
2 69976  97.2850  35.5778 0001330  90.7270 284.0377 15.95902038  1977
STARLINK-37995          
1 69977U 26159C   26196.91668981 -.01784320  91845-3 -44210-2 0  9993
2 69977  97.2850  35.5784 0001376  88.8575 286.8763 15.96038831  1972
STARLINK-38057          
1 69978U 26159D   26196.91668981 -.01770876  90703-3 -43519-2 0  9998
2 69978  97.2850  35.5786 0001384  86.0897 290.6989 15.96189447  1974
STARLINK-38063          
1 69979U 26159E   26196.91668981 -.01759011  89717-3 -42873-2 0  9992
2 69979  97.2850  35.5792 0001364  84.2931 293.5844 15.96340730  1975
STARLINK-38093          
1 69980U 26159F   26196.91668981 -.01744042  88440-3 -42157-2 0  9999
2 69980  97.2848  35.5796 0001254  93.1912 285.7951 15.96492541  1974
STARLINK-38050          
1 69981U 26159G   26196.91668981 -.01732414  87476-3 -41554-2 0  9998
2 69981  97.2849  35.5800 0001343  83.2291 296.7793 15.96633435  1976
STARLINK-38065          
1 69982U 26159H   26196.91668981 -.01721377  86577-3 -40956-2 0  9991
2 69982  97.2848  35.5807 0001324  88.0378 293.0367 15.96781271  1970
STARLINK-38077          
1 69983U 26159J   26196.91668981 -.01705547  85226-3 -40268-2 0  9999
2 69983  97.2848  35.5809 0001230  93.2026 288.9209 15.96921527  1975
STARLINK-38068          
1 69984U 26159K   26196.91668981 -.01691628  84047-3 -39666-2 0  9994
2 69984  97.2847  35.5812 0001315  89.6195 293.4311 15.97045531  1977
STARLINK-38089          
1 69985U 26159L   26196.91668981 -.01679764  83083-3 -39074-2 0  9994
2 69985  97.2846  35.5819 0001238  94.0272 290.1081 15.97191222  1971
STARLINK-38073          
1 69986U 26159M   26196.91668981 -.01673050  82585-3 -38631-2 0  9991
2 69986  97.2846  35.5821 0001345  87.4574 297.6800 15.97325502  1976
STARLINK-38099          
1 69987U 26159N   26196.91668981 -.01661713  81658-3 -38102-2 0  9998
2 69987  97.2846  35.5824 0001335  87.7587 298.3267 15.97451684  1972
STARLINK-38064          
1 69988U 26159P   26196.91668981 -.01627974  78819-3 -36797-2 0  9993
2 69988  97.2844  35.5831 0001234  82.7412 305.3540 15.97709251  1978
STARLINK-38080          
1 69989U 26159Q   26196.91668981 -.01649187  80635-3 -37531-2 0  9990
2 69989  97.2846  35.5829 0001353  75.0676 312.0376 15.97587518  1979
STARLINK-38070          
1 69990U 26159R   26196.91668981 -.01625391  78705-3 -36460-2 0  9998
2 69990  97.2844  35.5835 0001288  72.0210 317.1061 15.97847249  1971
STARLINK-38042          
1 69991U 26159S   26196.91668981 -.01604004  76875-3 -35771-2 0  9997
2 69991  97.2843  35.5838 0001404  85.0817 304.9242 15.97949937  1973
STARLINK-38071          
1 69992U 26159T   26196.91668981 -.01591255  75841-3 -35255-2 0  9990
2 69992  97.2844  35.5844 0001173  84.6146 306.2920 15.98067971  1973
STARLINK-38082          
1 69993U 26159U   26196.91668981 -.01580112  74948-3 -34789-2 0  9999
2 69993  97.2844  35.5846 0001353  87.1122 304.7253 15.98179870  1972
STARLINK-38090          
1 69994U 26159V   26196.91668981 -.01565557  73766-3 -34239-2 0  9993
2 69994  97.2844  35.5852 0001260  86.3397 306.4413 15.98298855  1974
STARLINK-38084          
1 69995U 26159W   26196.91668981 -.01565878  73904-3 -33993-2 0  9990
2 69995  97.2843  35.5857 0001238  76.9141 316.8872 15.98433136  1973
STARLINK-38085          
1 69996U 26159X   26196.91668981 -.01547854  72410-3 -33413-2 0  9993
2 69996  97.2845  35.5861 0001422  82.3907 312.2876 15.98531690  1975
STARLINK-38091          
1 69997U 26159Y   26196.91668981 -.01539801  71811-3 -33007-2 0  9990
2 69997  97.2844  35.5864 0001297  83.1035 312.5687 15.98657343  1976
STARLINK-38086          
1 69998U 26159Z   26196.91668981 -.01497850  68290-3 -31934-2 0  9992
2 69998  97.2844  35.5868 0001370 100.5573 296.0602 15.98748562  1971
