OBJECT_NAME,OBJECT_ID,EPOCH,MEAN_MOTION,ECCENTRICITY,INCLINATION,RA_OF_ASC_NODE,ARG_OF_PERICENTER,MEAN_ANOMALY,EPHEMERIS_TYPE,CLASSIFICATION_TYPE,NORAD_CAT_ID,ELEMENT_SET_NO,REV_AT_EPOCH,BSTAR,MEAN_MOTION_DOT,MEAN_MOTION_DDOT
STARLINK-37896,2026-157AD,2026-07-15T22:00:01.999584,15.97190109,.00007479,53.1589,291.9916,67.6843,285.6651,0,U,69970,999,227,-.51062065E-2,-.2269847E-1,.14613797E-2
STARLINK-37922,2026-157AE,2026-07-15T22:00:01.999584,15.97205987,.00007932,53.1588,291.9898,66.2564,287.9503,0,U,69971,999,227,-.50957548E-2,-.2267222E-1,.14583967E-2
CHUANG XIN 26 (CX-26),2026-158A,2026-07-13T12:20:46.071168,14.25122238,.0004887,49.9860,287.5119,294.2352,65.8050,0,U,69972,999,46,-.21871415E-4,-.212E-5,0
CZ-10B DEB,2026-158B,2026-07-13T14:02:35.409120,14.24885997,.0005701,49.9846,287.2193,305.8104,54.2279,0,U,69973,999,47,.11013E-3,.99E-6,0
CZ-10B R/B,2026-158C,2026-07-13T13:30:02.623104,14.64293949,.01979448,49.9631,286.3519,194.8878,164.6170,0,U,69974,999,48,.55130296E-4,.143E-5,0
STARLINK-38024,2026-159A,2026-07-15T22:00:01.999584,15.95769840,.00012734,97.2851,35.5778,86.3288,287.5294,0,U,69975,999,197,-.46025428E-2,-.1830356E-1,.96052684E-3
STARLINK-37993,2026-159B,2026-07-15T22:00:01.999584,15.95902038,.000133,97.2850,35.5778,90.7270,284.0377,0,U,69976,999,197,-.45088175E-2,-.1806149E-1,.93820468E-3
STARLINK-37995,2026-159C,2026-07-15T22:00:01.999584,15.96038831,.00013764,97.2850,35.5784,88.8575,286.8763,0,U,69977,999,197,-.442102E-2,-.178432E-1,.91845081E-3
STARLINK-38057,2026-159D,2026-07-15T22:00:01.999584,15.96189447,.0001384,97.2850,35.5786,86.0897,290.6989,0,U,69978,999,197,-.43518742E-2,-.1770876E-1,.90702669E-3
STARLINK-38063,2026-159E,2026-07-15T22:00:01.999584,15.96340730,.00013648,97.2850,35.5792,84.2931,293.5844,0,U,69979,999,197,-.4287252E-2,-.1759011E-1,.8971656E-3
STARLINK-38093,2026-159F,2026-07-15T22:00:01.999584,15.96492541,.0001254,97.2848,35.5796,93.1912,285.7951,0,U,69980,999,197,-.42156734E-2,-.1744042E-1,.88440182E-3
STARLINK-38050,2026-159G,2026-07-15T22:00:01.999584,15.96633435,.00013435,97.2849,35.5800,83.2291,296.7793,0,U,69981,999,197,-.41553629E-2,-.1732414E-1,.87475724E-3
STARLINK-38065,2026-159H,2026-07-15T22:00:01.999584,15.96781271,.00013246,97.2848,35.5807,88.0378,293.0367,0,U,69982,999,197,-.40956189E-2,-.1721377E-1,.86576666E-3
STARLINK-38077,2026-159J,2026-07-15T22:00:01.999584,15.96921527,.00012303,97.2848,35.5809,93.2026,288.9209,0,U,69983,999,197,-.40267624E-2,-.1705547E-1,.85226355E-3
STARLINK-38068,2026-159K,2026-07-15T22:00:01.999584,15.97045531,.0001315,97.2847,35.5812,89.6195,293.4311,0,U,69984,999,197,-.39666077E-2,-.1691628E-1,.84046772E-3
STARLINK-38089,2026-159L,2026-07-15T22:00:01.999584,15.97191222,.00012381,97.2846,35.5819,94.0272,290.1081,0,U,69985,999,197,-.39073528E-2,-.1679764E-1,.83082578E-3
STARLINK-38073,2026-159M,2026-07-15T22:00:01.999584,15.97325502,.00013452,97.2846,35.5821,87.4574,297.6800,0,U,69986,999,197,-.38630666E-2,-.167305E-1,.82585474E-3
STARLINK-38099,2026-159N,2026-07-15T22:00:01.999584,15.97451684,.00013353,97.2846,35.5824,87.7587,298.3267,0,U,69987,999,197,-.38102052E-2,-.1661713E-1,.81657972E-3
STARLINK-38064,2026-159P,2026-07-15T22:00:01.999584,15.97709251,.0001234,97.2844,35.5831,82.7412,305.3540,0,U,69988,999,197,-.36796695E-2,-.1627974E-1,.78818868E-3
STARLINK-38080,2026-159Q,2026-07-15T22:00:01.999584,15.97587518,.00013539,97.2846,35.5829,75.0676,312.0376,0,U,69989,999,197,-.37531059E-2,-.1649187E-1,.80634843E-3
STARLINK-38070,2026-159R,2026-07-15T22:00:01.999584,15.97847249,.00012889,97.2844,35.5835,72.0210,317.1061,0,U,69990,999,197,-.3645986E-2,-.1625391E-1,.78705332E-3
STARLINK-38042,2026-159S,2026-07-15T22:00:01.999584,15.97949937,.00014042,97.2843,35.5838,85.0817,304.9242,0,U,69991,999,197,-.35771175E-2,-.1604004E-1,.76875258E-3
STARLINK-38071,2026-159T,2026-07-15T22:00:01.999584,15.98067971,.0001173,97.2844,35.5844,84.6146,306.2920,0,U,69992,999,197,-.35254638E-2,-.1591255E-1,.75840807E-3
STARLINK-38082,2026-159U,2026-07-15T22:00:01.999584,15.98179870,.00013534,97.2844,35.5846,87.1122,304.7253,0,U,69993,999,197,-.34788531E-2,-.1580112E-1,.74948238E-3
STARLINK-38090,2026-159V,2026-07-15T22:00:01.999584,15.98298855,.00012606,97.2844,35.5852,86.3397,306.4413,0,U,69994,999,197,-.34238917E-2,-.1565557E-1,.7376644E-3
STARLINK-38084,2026-159W,2026-07-15T22:00:01.999584,15.98433136,.00012389,97.2843,35.5857,76.9141,316.8872,0,U,69995,999,197,-.33992566E-2,-.1565878E-1,.73903864E-3
STARLINK-38085,2026-159X,2026-07-15T22:00:01.999584,15.98531690,.00014228,97.2845,35.5861,82.3907,312.2876,0,U,69996,999,197,-.33412812E-2,-.1547854E-1,.72409538E-3
STARLINK-38091,2026-159Y,2026-07-15T22:00:01.999584,15.98657343,.00012973,97.2844,35.5864,83.1035,312.5687,0,U,69997,999,197,-.330066E-2,-.1539801E-1,.71810767E-3
STARLINK-38086,2026-159Z,2026-07-15T22:00:01.999584,15.98748562,.000137,97.2844,35.5868,100.5573,296.0602,0,U,69998,999,197,-.31934381E-2,-.149785E-1,.68289652E-3
